NORAD_CAT_ID,OBJECT_NAME,OBJECT_TYPE,EPOCH,MEAN_MOTION,ECCENTRICITY,INCLINATION,RA_OF_ASC_NODE,ARG_OF_PERICENTER,MEAN_ANOMALY,BSTAR,MEAN_MOTION_DOT,MEAN_MOTION_DDOT,TLE_LINE0,TLE_LINE1,TLE_LINE2,SEMIMAJOR_AXIS,PERIOD,APOGEE,PERIGEE,DECAYED
52294.0,STARLINK-3777,PAYLOAD,2023-03-10 11:11:35,15.08837112,0.0001434,53.215,335.7763,47.7316,312.3797,0.0015207,0.00023995,0.0,0 STARLINK-3777,1 52294U 22041AK  23069.46637946  .00023995  00000-0  15207-2 0  9991,2 52294  53.2150 335.7763 0001434  47.7316 312.3797 15.08837112 50388,6917.889,95.438,540.746,538.762,0.0
52294.0,STARLINK-3777,PAYLOAD,2023-03-10 17:33:08,15.08817879,0.0002894,53.2159,334.5853,69.0662,291.0639,0.0012112,0.0001903,0.0,0 STARLINK-3777,1 52294U 22041AK  23069.73135100  .00019030  00000-0  12112-2 0  9993,2 52294  53.2159 334.5853 0002894  69.0662 291.0639 15.08817879 50427,6917.948,95.439,541.815,537.811,0.0
52294.0,STARLINK-3777,PAYLOAD,2023-03-10 23:54:41,15.08816716,0.0001482,53.2159,333.3972,50.7117,309.4006,0.0021757,0.00034486,0.0,0 STARLINK-3777,1 52294U 22041AK  23069.99631338  .00034486  00000-0  21757-2 0  9992,2 52294  53.2159 333.3972 0001482  50.7117 309.4006 15.08816716 49249,6917.952,95.439,540.842,538.791,0.0
52294.0,STARLINK-3777,PAYLOAD,2023-03-11 23:45:28,15.08877413,0.000153,53.2154,328.9371,47.506,312.6061,0.0020792,0.00032992,0.0,0 STARLINK-3777,1 52294U 22041AK  23070.98990967  .00032992  00000-0  20792-2 0  9997,2 52294  53.2154 328.9371 0001530  47.5060 312.6061 15.08877413 50613,6917.766,95.435,540.689,538.573,0.0
52294.0,STARLINK-3777,PAYLOAD,2023-03-12 23:36:15,15.08867801,0.0001765,53.2162,324.4759,48.5921,311.5223,0.0016104,0.00025454,0.0,0 STARLINK-3777,1 52294U 22041AK  23071.98350721  .00025454  00000-0  16104-2 0  9993,2 52294  53.2162 324.4759 0001765  48.5921 311.5223 15.08867801 50764,6917.795,95.436,540.881,538.439,0.0
52294.0,STARLINK-3777,PAYLOAD,2023-03-13 05:57:47,15.08849318,0.0001905,53.2158,323.2873,30.8308,329.2796,0.0010026,0.00015708,0.0,0 STARLINK-3777,1 52294U 22041AK  23072.24846649  .00015708  00000-0  10026-2 0  9990,2 52294  53.2158 323.2873 0001905  30.8308 329.2796 15.08849318 50801,6917.852,95.437,541.035,538.399,0.0
52294.0,STARLINK-3777,PAYLOAD,2023-03-13 21:51:39,15.08815015,0.0001045,53.2156,320.3109,70.3282,289.7823,0.00072882,0.00011322,0.0,0 STARLINK-3777,1 52294U 22041AK  23072.91087851  .00011322  00000-0  72882-3 0  9993,2 52294  53.2156 320.3109 0001045  70.3282 289.7823 15.08815015 49686,6917.957,95.439,540.545,539.099,0.0
52294.0,STARLINK-3777,PAYLOAD,2023-03-14 01:02:26,15.08822695,0.0001148,53.2152,319.7173,80.6215,279.4907,0.0010494,0.00016445,0.0,0 STARLINK-3777,1 52294U 22041AK  23073.04336005  .00016445  00000-0  10494-2 0  9997,2 52294  53.2152 319.7173 0001148  80.6215 279.4907 15.08822695 50929,6917.933,95.439,540.592,539.004,0.0
52294.0,STARLINK-3777,PAYLOAD,2023-03-14 15:20:54,15.08855355,0.0001143,53.215,317.0395,75.0292,285.0826,0.0015416,0.00024342,0.0,0 STARLINK-3777,1 52294U 22041AK  23073.63951917  .00024342  00000-0  15416-2 0  9991,2 52294  53.2150 317.0395 0001143  75.0292 285.0826 15.08855355 51015,6917.833,95.437,540.489,538.908,0.0
52294.0,STARLINK-3777,PAYLOAD,2023-03-14 21:42:26,15.08873301,0.0001014,53.215,315.8522,86.3801,273.7307,0.0017454,0.00027625,0.0,0 STARLINK-3777,1 52294U 22041AK  23073.90447321  .00027625  00000-0  17454-2 0  9991,2 52294  53.2150 315.8522 0001014  86.3801 273.7307 15.08873301 49837,6917.779,95.435,540.345,538.942,0.0
52294.0,STARLINK-3777,PAYLOAD,2023-03-15 00:53:12,15.08882733,0.0001013,53.2149,315.2569,85.6916,274.4192,0.001852,0.00029344,0.0,0 STARLINK-3777,1 52294U 22041AK  23074.03694933  .00029344  00000-0  18520-2 0  9994,2 52294  53.2149 315.2569 0001013  85.6916 274.4192 15.08882733 51076,6917.75,95.435,540.316,538.914,0.0
52294.0,STARLINK-3777,PAYLOAD,2023-03-15 21:33:13,15.08848595,0.000151,53.215,311.3912,87.455,272.6615,0.0014348,0.00022626,0.0,0 STARLINK-3777,1 52294U 22041AK  23074.89807656  .00022626  00000-0  14348-2 0  9996,2 52294  53.2150 311.3912 0001510  87.4550 272.6615 15.08848595 49988,6917.854,95.437,540.764,538.675,0.0
52294.0,STARLINK-3777,PAYLOAD,2023-03-16 05:30:09,15.08848135,0.000123,53.2134,309.9055,81.2367,278.8764,0.0010327,0.00016189,0.0,0 STARLINK-3777,1 52294U 22041AK  23075.22927555  .00016189  00000-0  10327-2 0  9995,2 52294  53.2134 309.9055 0001230  81.2367 278.8764 15.08848135 51254,6917.856,95.437,540.571,538.87,0.0
52294.0,STARLINK-3777,PAYLOAD,2023-03-16 21:24:01,15.08827582,0.000133,53.214,306.9302,100.4552,259.659,0.0011262,0.00017675,0.0,0 STARLINK-3777,1 52294U 22041AK  23075.89168178  .00017675  00000-0  11262-2 0  9996,2 52294  53.2140 306.9302 0001330 100.4552 259.6590 15.08827582 51352,6917.918,95.438,540.703,538.863,0.0
52294.0,STARLINK-3777,PAYLOAD,2023-03-17 08:31:43,15.08838656,0.0001401,53.2137,304.8496,79.1892,280.9258,0.00066076,0.00010243,0.0,0 STARLINK-3777,1 52294U 22041AK  23076.35536414  .00010243  00000-0  66076-3 0  9998,2 52294  53.2137 304.8496 0001401  79.1892 280.9258 15.08838656 50202,6917.884,95.438,540.719,538.78,0.0
52294.0,STARLINK-3777,PAYLOAD,2023-03-17 21:14:48,15.0884534,0.0001487,53.2133,302.4711,78.23,281.8859,0.00057372,8.856e-05,0.0,0 STARLINK-3777,1 52294U 22041AK  23076.88528420  .00008856  00000-0  57372-3 0  9990,2 52294  53.2133 302.4711 0001487  78.2300 281.8859 15.08845340 51509,6917.864,95.437,540.758,538.7,0.0
52294.0,STARLINK-3777,PAYLOAD,2023-03-18 21:05:34,15.08857636,0.0001255,53.2139,298.0077,95.5001,264.6134,0.00047115,7.222e-05,0.0,0 STARLINK-3777,1 52294U 22041AK  23077.87887505  .00007222  00000-0  47115-3 0  9992,2 52294  53.2139 298.0077 0001255  95.5001 264.6134 15.08857636 50430,6917.826,95.436,540.56,538.823,0.0
52294.0,STARLINK-3777,PAYLOAD,2023-03-19 00:16:20,15.08860513,0.000132,53.2138,297.4127,94.4133,265.701,0.00048534,7.449e-05,0.0,0 STARLINK-3777,1 52294U 22041AK  23078.01135330  .00007449  00000-0  48534-3 0  9998,2 52294  53.2138 297.4127 0001320  94.4133 265.7010 15.08860513 51675,6917.818,95.436,540.596,538.77,0.0
52294.0,STARLINK-3777,PAYLOAD,2023-03-19 20:56:21,15.08847169,0.0001306,53.2147,293.548,76.5087,283.6051,0.00012734,1.74e-05,0.0,0 STARLINK-3777,1 52294U 22041AK  23078.87247568  .00001740  00000-0  12734-3 0  9990,2 52294  53.2147 293.5480 0001306  76.5087 283.6051 15.08847169 51808,6917.858,95.437,540.627,538.82,0.0
52294.0,STARLINK-3777,PAYLOAD,2023-03-20 00:07:08,15.08849516,0.000129,53.214,292.9525,77.885,282.2287,0.00019434,2.807e-05,0.0,0 STARLINK-3777,1 52294U 22041AK  23079.00495467  .00002807  00000-0  19434-3 0  9998,2 52294  53.2140 292.9525 0001290  77.8850 282.2287 15.08849516 50609,6917.851,95.437,540.609,538.824,0.0
52294.0,STARLINK-3777,PAYLOAD,2023-03-20 20:47:08,15.08846868,0.0001291,53.2137,289.0858,77.1714,282.9423,0.00021189,3.087e-05,0.0,0 STARLINK-3777,1 52294U 22041AK  23079.86607409  .00003087  00000-0  21189-3 0  9994,2 52294  53.2137 289.0858 0001291  77.1714 282.9423 15.08846868 50734,6917.859,95.437,540.617,538.831,0.0
52294.0,STARLINK-3777,PAYLOAD,2023-03-20 23:57:54,15.08850755,0.0001253,53.2138,288.4906,74.5149,285.5981,0.00030618,4.59e-05,0.0,0 STARLINK-3777,1 52294U 22041AK  23079.99855266  .00004590  00000-0  30618-3 0  9991,2 52294  53.2138 288.4906 0001253  74.5149 285.5981 15.08850755 51978,6917.848,95.437,540.579,538.846,0.0
52294.0,STARLINK-3777,PAYLOAD,2023-03-21 20:37:55,15.08846821,0.0001272,53.2135,284.624,72.5407,287.5724,0.00015363,2.158e-05,0.0,0 STARLINK-3777,1 52294U 22041AK  23080.85967102  .00002158  00000-0  15363-3 0  9999,2 52294  53.2135 284.6240 0001272  72.5407 287.5724 15.08846821 52102,6917.86,95.437,540.604,538.845,0.0
52294.0,STARLINK-3777,PAYLOAD,2023-03-22 20:28:42,15.08842462,0.000105,53.2143,280.1644,92.3317,267.7795,1.2097e-05,-9.5e-07,0.0,0 STARLINK-3777,1 52294U 22041AK  23081.85327452 -.00000095  00000-0  12097-4 0  9999,2 52294  53.2143 280.1644 0001050  92.3317 267.7795 15.08842462 52255,6917.873,95.437,540.464,539.011,0.0
52294.0,STARLINK-3777,PAYLOAD,2023-03-23 06:01:01,15.08841442,9.52e-05,53.2132,278.3775,78.5566,281.5533,-1.9776e-05,-6.02e-06,0.0,0 STARLINK-3777,1 52294U 22041AK  23082.25071099 -.00000602  00000-0 -19776-4 0  9993,2 52294  53.2132 278.3775 0000952  78.5566 281.5533 15.08841442 51091,6917.876,95.437,540.4,539.082,0.0
52294.0,STARLINK-3777,PAYLOAD,2023-03-23 20:19:30,15.08841915,0.0001143,53.2137,275.7032,84.1632,275.949,-1.2648e-06,-3.08e-06,0.0,0 STARLINK-3777,1 52294U 22041AK  23082.84687922 -.00000308  00000-0 -12648-5 0  9991,2 52294  53.2137 275.7032 0001143  84.1632 275.9490 15.08841915 51187,6917.875,95.437,540.53,538.949,0.0
52294.0,STARLINK-3777,PAYLOAD,2023-03-23 23:30:16,15.08846149,0.0001105,53.2132,275.1078,94.8095,265.3024,0.00011746,1.582e-05,0.0,0 STARLINK-3777,1 52294U 22041AK  23082.97935199  .00001582  00000-0  11746-3 0  9996,2 52294  53.2132 275.1078 0001105  94.8095 265.3024 15.08846149 52423,6917.862,95.437,540.491,538.962,0.0
52294.0,STARLINK-3777,PAYLOAD,2023-03-24 05:51:48,15.08863739,0.000115,53.213,273.9196,90.8242,269.2881,0.00036564,5.54e-05,0.0,0 STARLINK-3777,1 52294U 22041AK  23083.24430602  .00005540  00000-0  36564-3 0  9999,2 52294  53.2130 273.9196 0001150  90.8242 269.2881 15.08863739 52460,6917.808,95.436,540.468,538.877,0.0
52294.0,STARLINK-3777,PAYLOAD,2023-03-24 12:13:20,15.08854364,9.14e-05,53.2135,272.7289,88.1331,271.9766,0.00042328,6.458e-05,0.0,0 STARLINK-3777,1 52294U 22041AK  23083.50926852  .00006458  00000-0  42328-3 0  9999,2 52294  53.2135 272.7289 0000914  88.1331 271.9766 15.08854364 52502,6917.836,95.437,540.334,539.069,0.0
52294.0,STARLINK-3777,PAYLOAD,2023-03-24 20:10:15,15.08880503,0.0001041,53.2134,271.2442,85.9506,274.1606,0.0011589,0.00018224,0.0,0 STARLINK-3777,1 52294U 22041AK  23083.84045891  .00018224  00000-0  11589-2 0  9999,2 52294  53.2134 271.2442 0001041  85.9506 274.1606 15.08880503 52554,6917.757,95.435,540.342,538.901,0.0
